O3B MPOWER F1           
1 54755U 22174A   24009.86590594 -.00000009  00000+0  00000+0 0  9991
2 54755   0.0580  13.5604 0006134 288.1841 124.6103  5.00118376 20860
